STARLINK-34362          
1 64292U 25123B   25178.58335648 -.01577973  00000+0 -22604-1 0  9996
2 64292  70.0000 133.8310 0003426 272.2191  57.6803 15.59188040  4273
STARLINK-34428          
1 64293U 25123C   25178.58335648 -.01576760  00000+0 -22584-1 0  9997
2 64293  69.9997 133.8333 0003461 273.0105  54.9715 15.59188101  4162
STARLINK-34388          
1 64294U 25123D   25178.58335648 -.01575002  00000+0 -22554-1 0  9993
2 64294  69.9998 133.8290 0003551 274.4754  57.3357 15.59188857  4168
STARLINK-34424          
1 64295U 25123E   25178.58335648 -.01572612  00000+0 -22516-1 0  9996
2 64295  70.0003 133.8270 0003499 271.9123  61.8141 15.59188897  4277
STARLINK-34443          
1 64296U 25123F   25178.58335648 -.01574632  00000+0 -22548-1 0  9996
2 64296  70.0005 133.8243 0003518 273.7987  61.8448 15.59189338  4271
STARLINK-34369          
1 64297U 25123G   25178.58335648 -.01574771  00000+0 -22553-1 0  9997
2 64297  70.0010 133.8210 0003438 272.3744  65.1904 15.59187159  4126
STARLINK-34391          
1 64298U 25123H   25178.58335648 -.01559776  00000+0 -22317-1 0  9994
2 64298  70.0007 133.8194 0003512 274.8409  64.6383 15.59179709  4163
STARLINK-34378          
1 64299U 25123J   25178.58335648 -.01572733  00000+0 -22520-1 0  9999
2 64299  70.0004 133.8176 0003543 274.9496  66.4467 15.59185958  4270
STARLINK-34376          
1 64300U 25123K   25178.58335648 -.01570087  00000+0 -22478-1 0  9994
2 64300  69.9998 133.8155 0003445 271.7284  71.5823 15.59186424  4272
STARLINK-34372          
1 64301U 25123L   25178.58335648 -.01573865  00000+0 -22537-1 0  9998
2 64301  70.0002 133.8125 0003540 273.4630  71.7657 15.59187450  4276
STARLINK-34379          
1 64302U 25123M   25178.58335648 -.01570979  00000+0 -22490-1 0  9990
2 64302  70.0002 133.8108 0003565 271.9519  75.1905 15.59187681  4162
STARLINK-34356          
1 64303U 25123N   25178.58335648 -.01565710  00000+0 -22409-1 0  9998
2 64303  70.0003 133.8085 0003447 271.7213  77.3394 15.59184636  4169
STARLINK-34360          
1 64304U 25123P   25178.58335648 -.01540018  00000+0 -22005-1 0  9995
2 64304  70.0002 133.8048 0003654 271.9570  79.0233 15.59171470  4002
STARLINK-34383          
1 64305U 25123Q   25178.58335648 -.01569711  00000+0 -22470-1 0  9993
2 64305  70.0008 133.8032 0003613 275.0167  77.8758 15.59186573  4169
STARLINK-34355          
1 64306U 25123R   25178.58335648 -.01574152  00000+0 -22540-1 0  9997
2 64306  70.0011 133.8015 0003588 273.8116  80.9975 15.59188751  4162
STARLINK-34380          
1 64307U 25123S   25178.58335648 -.01568918  00000+0 -22459-1 0  9990
2 64307  70.0008 133.7988 0003615 272.6596  84.0692 15.59184475  4279
STARLINK-34374          
1 64308U 25123T   25178.58335648 -.01565381  00000+0 -22403-1 0  9991
2 64308  70.0005 133.7965 0003525 272.2915  86.3504 15.59184475  4168
STARLINK-34370          
1 64309U 25123U   25178.58335648 -.01571455  00000+0 -22497-1 0  9994
2 64309  70.0009 133.7938 0003682 274.6294  85.9300 15.59186988  4275
STARLINK-34357          
1 64310U 25123V   25178.58335648 -.01569751  00000+0 -22471-1 0  9994
2 64310  70.0007 133.7920 0003614 272.7037  89.7726 15.59186154  4162
STARLINK-34368          
1 64311U 25123W   25178.58335648 -.01569843  00000+0 -22473-1 0  9999
2 64311  70.0004 133.7892 0003539 273.0902  91.3022 15.59186490  4272
STARLINK-34384          
1 64312U 25123X   25178.58335648 -.01564938  00000+0 -22395-1 0  9993
2 64312  70.0004 133.7871 0003635 274.1591  92.1492 15.59184087  4273
STARLINK-34358          
1 64313U 25123Y   25178.58335648 -.01563578  00000+0 -22376-1 0  9992
2 64313  70.0005 133.7850 0003599 273.5876  94.6412 15.59181159  4164
STARLINK-34354          
1 64314U 25123Z   25178.58335648 -.01563954  00000+0 -22381-1 0  9997
2 64314  70.0005 133.7825 0003557 274.2349  95.9077 15.59182927  4271
STARLINK-34387          
1 64315U 25123AA  25178.58335648 -.01568474  00000+0 -22452-1 0  9999
2 64315  70.0008 133.7806 0003605 274.1589  97.9014 15.59184434  4271
STARLINK-33590          
1 64316U 25123AB  25178.58335648 -.01566060  00000+0 -22414-1 0  9997
2 64316  70.0013 133.7786 0003719 273.1831 100.7971 15.59181948  4261
STARLINK-11736 [DTC]    
1 64317U 25124A   25178.22862207  .00236855  00000+0  13219-2 0  9993
2 64317  43.0015 130.2586 0001433 285.5563  74.5149 15.77932768  2643
STARLINK-11673 [DTC]    
1 64318U 25124B   25178.22374163  .00328748  00000+0  18127-2 0  9999
2 64318  43.0018 130.2187 0001321 285.6161  74.4563 15.77946228  2640
STARLINK-11671 [DTC]    
1 64319U 25124C   25178.34545675  .00185985  00000+0  10449-2 0  9994
2 64319  43.0015 129.4072 0001769 263.3990  96.6679 15.77931667  2667
STARLINK-11594 [DTC]    
1 64320U 25124D   25178.58335648 -.00123389  00000+0 -71496-3 0  9991
2 64320  43.0020 127.8889 0001839 263.8101  36.9712 15.77901542  3722
STARLINK-11596 [DTC]    
1 64321U 25124E   25178.58335648 -.00065122  00000+0 -37367-3 0  9991
2 64321  43.0052 127.8200 0001592 260.9143  67.6151 15.77887866  3736
STARLINK-11747 [DTC]    
1 64322U 25124F   25178.58335648  .00127448  00000+0  72509-3 0  9997
2 64322  43.0021 127.7518 0001551 274.6206  81.6237 15.77832706  3881
STARLINK-11728 [DTC]    
1 64323U 25124G   25178.58335648 -.00853463  00000+0 -52499-2 0  9998
2 64323  43.0032 127.6829 0001582 271.7240 111.8925 15.78533762  3654
STARLINK-11696 [DTC]    
1 64324U 25124H   25178.58335648 -.01000234  00000+0 -56664-2 0  9998
2 64324  43.0035 127.6292 0001554 276.1286 128.8556 15.80704359  3822
STARLINK-11698 [DTC]    
1 64325U 25124J   25178.58335648 -.00987452  00000+0 -50464-2 0  9996
2 64325  43.0038 127.5963 0001571 263.9537 154.2684 15.82855384  3824
STARLINK-11678 [DTC]    
1 64326U 25124K   25178.32001374  .00268557  00000+0  10833-2 0  9997
2 64326  43.0040 129.2010 0001818 261.1818  98.8849 15.84849552  2665
STARLINK-11674 [DTC]    
1 64327U 25124L   25178.31962262  .00400116  00000+0  15836-2 0  9996
2 64327  43.0034 129.1986 0001915 247.9167 112.1502 15.84914528  2669
STARLINK-11707 [DTC]    
1 64328U 25124M   25178.31915707  .00246565  00000+0  99901-3 0  9991
2 64328  43.0039 129.1940 0001620 294.0521  66.0182 15.84813989  2665
STARLINK-11734 [DTC]    
1 64329U 25124N   25178.31864069  .00197479  00000+0  80563-3 0  9999
2 64329  43.0037 129.1903 0001660 310.5392  49.5336 15.84800623  2665
STARLINK-34252          
1 64330U 25124P   25178.58335648 -.01576395  00000+0 -19285-1 0  9998
2 64330  43.0010 128.3055 0001546 286.7841 206.0241 15.62658810  3833
STARLINK-34050          
1 64331U 25124Q   25178.58335648 -.01576406  00000+0 -19286-1 0  9993
2 64331  43.0009 128.3007 0001440 287.6084 207.1166 15.62658761  3788
STARLINK-33782          
1 64332U 25124R   25178.58335648 -.01578389  00000+0 -19314-1 0  9998
2 64332  43.0010 128.2958 0001479 281.6075 215.0393 15.62657523  3731
STARLINK-34207          
1 64333U 25124S   25178.58335648 -.01578443  00000+0 -19313-1 0  9999
2 64333  43.0011 128.2908 0001385 284.4720 214.0863 15.62660749  3737
STARLINK-34260          
1 64334U 25124T   25178.58335648 -.01575045  00000+0 -19270-1 0  9997
2 64334  43.0009 128.2862 0001266 285.9704 214.5078 15.62656876  3830
STARLINK-33855          
1 64335U 25124U   25178.58335648 -.01580273  00000+0 -19340-1 0  9995
2 64335  43.0011 128.2812 0001416 279.9223 222.4760 15.62658137  3732
STARLINK-34223          
1 64336U 25124V   25178.58335648 -.01577095  00000+0 -19297-1 0  9995
2 64336  43.0011 128.2619 0001183 283.2155 226.8462 15.62659350  3837
STARLINK-34216          
1 64337U 25124W   25178.58335648 -.01576951  00000+0 -19294-1 0  9993
2 64337  43.0007 128.2714 0001419 286.8244 219.4040 15.62658331  3837
STARLINK-34218          
1 64338U 25124X   25178.58335648 -.01577796  00000+0 -19306-1 0  9996
2 64338  43.0011 128.2766 0001258 283.4237 220.8869 15.62659490  3940
STARLINK-34017          
1 64339U 25124Y   25178.58335648 -.01577451  00000+0 -19301-1 0  9990
2 64339  43.0009 128.2666 0001384 287.2107 220.9345 15.62658549  3949
QPS-SAR-11 (YAMATSUMI-I)
1 64340U 25125A   25178.61437063  .00002682  00000+0  24347-3 0  9995
2 64340  42.0104 340.1401 0007399   7.2108 352.8822 14.97170542  2393
ELECTRON KICK STAGE R/B 
1 64341U 25125B   25178.48588403  .00139546  11868-4  10409-2 0  9998
2 64341  42.0099 333.8344 0204345  19.8502 341.0152 15.49253924  2456
ELECTRON R/B            
1 64342U 25125C   25178.60552233  .00442636  63993-4  10537-2 0  9990
2 64342  42.0218 331.2219 0216344 348.7929  10.8148 15.66423264  2486
STARLINK-33977          
1 64344U 25126A   25178.57893282 -.00540971  00000+0 -35990-2 0  9999
2 64344  69.9969 324.3212 0004532 282.9346  77.1347 15.76593867  3511
STARLINK-34426          
1 64345U 25126B   25178.57859524 -.00396339  00000+0 -25830-2 0  9990
2 64345  69.9970 324.3207 0004428 277.7043  82.3653 15.76683814  2304
STARLINK-34437          
1 64346U 25126C   25178.26096471 -.00307152  00000+0 -19188-2 0  9995
2 64346  69.9969 325.2194 0004570 271.5515  88.5161 15.77403320  2251
STARLINK-34407          
1 64347U 25126D   25178.19668029 -.00377246  00000+0 -23764-2 0  9998
2 64347  69.9972 325.3973 0005409 286.3032  73.7572 15.77389798  2245
STARLINK-34274          
1 64348U 25126E   25178.51389192 -.00304452  00000+0 -19619-2 0  9999
2 64348  69.9970 324.4958 0004756 282.7964  77.2703 15.76694246  2291
STARLINK-34301          
1 64349U 25126F   25178.13271823  .00373741  00000+0  20845-2 0  9997
2 64349  69.9968 325.5743 0004334 274.4821  85.5884 15.78219457  2230
STARLINK-34425          
1 64350U 25126G   25178.57616744 -.01550496  00000+0 -10994-1 0  9992
2 64350  69.9968 324.3099 0006022 274.2532  85.7979 15.76679017  2301
STARLINK-34389          
1 64351U 25126H   25177.94182273 -.00232195  00000+0 -14007-2 0  9990
2 64351  69.9967 326.1126 0004133 278.5906  81.4825 15.77993822  2201
